[{"OBJECT_NAME":"OBJECT B","OBJECT_ID":"2023-189B","EPOCH":"2026-03-09T23:19:13.152000","MEAN_MOTION":15.72871024,"ECCENTRICITY":0.00049112,"INCLINATION":97.414,"RA_OF_ASC_NODE":101.6861,"ARG_OF_PERICENTER":172.6117,"MEAN_ANOMALY":187.522,"EPHEMERIS_TYPE":0,"CLASSIFICATION_TYPE":"U","NORAD_CAT_ID":58503,"ELEMENT_SET_NO":999,"REV_AT_EPOCH":12706,"BSTAR":0.00074828171,"MEAN_MOTION_DOT":0.00102221,"MEAN_MOTION_DDOT":0},{"OBJECT_NAME":"STARLINK-11494 [DTC]","OBJECT_ID":"2024-237F","EPOCH":"2026-03-09T23:19:04.349568","MEAN_MOTION":15.70827909,"ECCENTRICITY":0.0002165,"INCLINATION":43.0028,"RA_OF_ASC_NODE":55.1736,"ARG_OF_PERICENTER":262.4366,"MEAN_ANOMALY":97.6256,"EPHEMERIS_TYPE":0,"CLASSIFICATION_TYPE":"U","NORAD_CAT_ID":62272,"ELEMENT_SET_NO":999,"REV_AT_EPOCH":7304,"BSTAR":0.001841005,"MEAN_MOTION_DOT":0.00242684,"MEAN_MOTION_DDOT":0}]
